NORAD_CAT_ID,OBJECT_NAME,OBJECT_TYPE,EPOCH,MEAN_MOTION,ECCENTRICITY,INCLINATION,RA_OF_ASC_NODE,ARG_OF_PERICENTER,MEAN_ANOMALY,BSTAR,MEAN_MOTION_DOT,MEAN_MOTION_DDOT,TLE_LINE0,TLE_LINE1,TLE_LINE2,SEMIMAJOR_AXIS,PERIOD,APOGEE,PERIGEE,DECAYED
53134.0,STARLINK-4150,PAYLOAD,2022-11-15 01:42:23,15.08829406,0.000243,53.2148,208.7923,27.1345,332.9773,-3.5699e-05,-8.56e-06,0.0,0 STARLINK-4150,1 53134U 22083C   22319.07110703 -.00000856  00000-0 -35699-4 0  9994,2 53134  53.2148 208.7923 0002430  27.1345 332.9773 15.08829406 19088,6917.913000000001,95.438,541.4590000000002,538.097,0.0
53134.0,STARLINK-4150,PAYLOAD,2022-11-15 09:39:19,15.08835289,0.00025,53.2147,207.3053,26.4292,333.6827,7.2048e-05,8.58e-06,0.0,0 STARLINK-4150,1 53134U 22083C   22319.40230641  .00000858  00000-0  72048-4 0  9994,2 53134  53.2147 207.3053 0002500  26.4292 333.6827 15.08835289 18507,6917.895,95.438,541.489,538.03,0.0
53134.0,STARLINK-4150,PAYLOAD,2022-11-15 19:11:37,15.08859357,0.0002461,53.2147,205.5211,21.4615,338.648,-0.00094112,-0.00015244,0.0,0 STARLINK-4150,1 53134U 22083C   22319.79973626 -.00015244  00000-0 -94112-3 0  9995,2 53134  53.2147 205.5211 0002461  21.4615 338.6480 15.08859357 19191,6917.821,95.436,541.389,537.984,0.0
53134.0,STARLINK-4150,PAYLOAD,2022-11-15 20:47:01,15.08825656,0.0002497,53.2148,205.2239,26.4799,333.6321,4.8367e-05,4.81e-06,0.0,0 STARLINK-4150,1 53134U 22083C   22319.86599524  .00000481  00000-0  48367-4 0  9991,2 53134  53.2148 205.2239 0002497  26.4799 333.6321 15.08825656 18571,6917.924,95.438,541.5169999999998,538.062,0.0
53134.0,STARLINK-4150,PAYLOAD,2022-11-16 01:33:11,15.08827954,0.0002519,53.2147,204.3318,27.32800000000001,332.7845,6.8685e-05,8.05e-06,0.0,0 STARLINK-4150,1 53134U 22083C   22320.06471574  .00000805  00000-0  68685-4 0  9994,2 53134  53.2147 204.3318 0002519  27.3280 332.7845 15.08827954 19236,6917.917,95.438,541.525,538.04,0.0
53134.0,STARLINK-4150,PAYLOAD,2022-11-16 09:30:07,15.0883303,0.0002508,53.2147,202.8451,28.1895,331.9233,0.00011129,1.483e-05,0.0,0 STARLINK-4150,1 53134U 22083C   22320.39591566  .00001483  00000-0  11129-3 0  9997,2 53134  53.2147 202.8451 0002508  28.1895 331.9233 15.08833030 18655,6917.901999999999,95.438,541.502,538.0319999999998,0.0
53134.0,STARLINK-4150,PAYLOAD,2022-11-16 19:02:25,15.08839238,0.0002531,53.2147,201.061,28.7257,331.3874,0.00010981,1.46e-05,0.0,0 STARLINK-4150,1 53134U 22083C   22320.79335388  .00001460  00000-0  10981-3 0  9999,2 53134  53.2147 201.0610 0002531  28.7257 331.3874 15.08839238 18715,6917.8830000000025,95.438,541.499,537.997,0.0
53134.0,STARLINK-4150,PAYLOAD,2022-11-17 01:23:58,15.08842022,0.000257,53.2156,199.8715,30.4927,329.6214,0.00022433,3.284e-05,0.0,0 STARLINK-4150,1 53134U 22083C   22321.05831072  .00003284  00000-0  22433-3 0  9991,2 53134  53.2156 199.8715 0002570  30.4927 329.6214 15.08842022 19389,6917.874,95.437,541.5169999999998,537.961,0.0
53134.0,STARLINK-4150,PAYLOAD,2022-11-17 09:20:54,15.08838067,0.0002668,53.2148,198.3848,31.5004,328.6147,0.0001587,2.238e-05,0.0,0 STARLINK-4150,1 53134U 22083C   22321.38951646  .00002238  00000-0  15870-3 0  9992,2 53134  53.2148 198.3848 0002668  31.5004 328.6147 15.08838067 19431,6917.886,95.438,541.597,537.906,0.0
53134.0,STARLINK-4150,PAYLOAD,2022-11-17 20:28:36,15.08839503,0.0002648,53.2146,196.3027,32.9119,327.2038,0.00015958,2.252e-05,0.0,0 STARLINK-4150,1 53134U 22083C   22321.85319625  .00002252  00000-0  15958-3 0  9992,2 53134  53.2146 196.3027 0002648  32.9119 327.2038 15.08839503 18873,6917.882,95.438,541.5790000000002,537.915,0.0
53134.0,STARLINK-4150,PAYLOAD,2022-11-17 23:39:22,15.08841179,0.0002656,53.2147,195.708,33.216,326.8998,0.00019042,2.744e-05,0.0,0 STARLINK-4150,1 53134U 22083C   22321.98567578  .00002744  00000-0  19042-3 0  9992,2 53134  53.2147 195.7080 0002656  33.2160 326.8998 15.08841179 18899,6917.877,95.437,541.5790000000002,537.904,0.0
53134.0,STARLINK-4150,PAYLOAD,2022-11-18 21:54:45,15.08848602,0.0002707,53.2145,191.5447,35.2955,324.8216,0.00016185,2.289e-05,0.0,0 STARLINK-4150,1 53134U 22083C   22322.91303081  .00002289  00000-0  16185-3 0  9992,2 53134  53.2145 191.5447 0002707  35.2955 324.8216 15.08848602 19035,6917.854,95.437,541.592,537.846,0.0
53134.0,STARLINK-4150,PAYLOAD,2022-11-19 01:05:32,15.08843979,0.0002648,53.2146,190.9502,34.995,325.1216,4.5877e-05,4.42e-06,0.0,0 STARLINK-4150,1 53134U 22083C   22323.04551251  .00000442  00000-0  45877-4 0  9991,2 53134  53.2146 190.9502 0002648  34.9950 325.1216 15.08843979 19683,6917.868,95.437,541.565,537.901,0.0
53134.0,STARLINK-4150,PAYLOAD,2022-11-19 02:40:55,15.08844861,0.0002644,53.2147,190.6528,35.3402,324.7765,6.199e-05,6.98e-06,0.0,0 STARLINK-4150,1 53134U 22083C   22323.11175233  .00000698  00000-0  61990-4 0  9998,2 53134  53.2147 190.6528 0002644  35.3402 324.7765 15.08844861 19069,6917.866,95.437,541.56,537.901,0.0
53134.0,STARLINK-4150,PAYLOAD,2022-11-19 20:10:09,15.08842931,0.0002517,53.2148,187.3814,33.7582,326.357,6.0105e-05,6.68e-06,0.0,0 STARLINK-4150,1 53134U 22083C   22323.84038903  .00000668  00000-0  60105-4 0  9994,2 53134  53.2148 187.3814 0002517  33.7582 326.3570 15.08842931 19171,6917.871,95.437,541.4780000000002,537.995,0.0
53134.0,STARLINK-4150,PAYLOAD,2022-11-20 00:56:19,15.08837768,0.0002658,53.2153,186.4895,33.9413,326.1749,1.6272e-05,-3e-07,0.0,0 STARLINK-4150,1 53134U 22083C   22324.03911489 -.00000030  00000-0  16272-4 0  9995,2 53134  53.2153 186.4895 0002658  33.9413 326.1749 15.08837768 19838,6917.887,95.438,541.591,537.913,0.0
53134.0,STARLINK-4150,PAYLOAD,2022-11-20 02:31:42,15.08839645,0.0002697,53.2154,186.1919,29.5201,330.5943,2.442e-05,1e-06,0.0,0 STARLINK-4150,1 53134U 22083C   22324.10535432  .00000100  00000-0  24420-4 0  9994,2 53134  53.2154 186.1919 0002697  29.5201 330.5943 15.08839645 19215,6917.880999999999,95.438,541.612,537.881,0.0
53134.0,STARLINK-4150,PAYLOAD,2022-11-20 16:50:10,15.08804511,0.0002432,53.2152,183.5157,35.9192,324.1963,0.00060126,9.285e-05,0.0,0 STARLINK-4150,1 53134U 22083C   22324.70151426  .00009285  00000-0  60126-3 0  9992,2 53134  53.2152 183.5157 0002432  35.9192 324.1963 15.08804511 19939,6917.989000000001,95.44,541.536,538.1709999999998,0.0
53134.0,STARLINK-4150,PAYLOAD,2022-11-20 21:36:20,15.08827624,0.0002562,53.2162,182.6243,35.3414,324.7747,0.00014528,2.024e-05,0.0,0 STARLINK-4150,1 53134U 22083C   22324.90023695  .00002024  00000-0  14528-3 0  9999,2 53134  53.2162 182.6243 0002562  35.3414 324.7747 15.08827624 19331,6917.918000000002,95.438,541.556,538.011,0.0
53134.0,STARLINK-4150,PAYLOAD,2022-11-21 07:08:39,15.08831442,0.00027,53.2155,180.8392,34.7308,325.386,6.988300000000001e-06,-1.77e-06,0.0,0 STARLINK-4150,1 53134U 22083C   22325.29768166 -.00000177  00000-0  69883-5 0  9995,2 53134  53.2155 180.8392 0002700  34.7308 325.3860 15.08831442 19399,6917.906999999997,95.438,541.639,537.904,0.0
53134.0,STARLINK-4150,PAYLOAD,2022-11-21 21:27:07,15.08832815,0.000269,53.2151,178.1631,34.8214,325.2953,0.00010099,1.319e-05,0.0,0 STARLINK-4150,1 53134U 22083C   22325.89384094  .00001319  00000-0  10099-3 0  9996,2 53134  53.2151 178.1631 0002690  34.8214 325.2953 15.08832815 19483,6917.901999999999,95.438,541.628,537.906,0.0
53134.0,STARLINK-4150,PAYLOAD,2022-11-22 00:37:54,15.08835263,0.000274,53.2141,177.5686,35.6746,324.4429,0.00010488,1.381e-05,0.0,0 STARLINK-4150,1 53134U 22083C   22326.02631951  .00001381  00000-0  10488-3 0  9990,2 53134  53.2141 177.5686 0002740  35.6746 324.4429 15.08835263 20133,6917.895,95.438,541.655,537.864,0.0
53134.0,STARLINK-4150,PAYLOAD,2022-11-22 19:42:31,15.0883975,0.0002768999999999,53.2141,173.9999,36.5569,323.5612,8.488799999999999e-05,1.063e-05,0.0,0 STARLINK-4150,1 53134U 22083C   22326.82119868  .00001063  00000-0  84888-4 0  9999,2 53134  53.2141 173.9999 0002769  36.5569 323.5612 15.08839750 19625,6917.880999999999,95.438,541.6619999999998,537.831,0.0
53134.0,STARLINK-4150,PAYLOAD,2022-11-23 06:50:13,15.08841836,0.0002813,53.2141,171.9183,37.5372,322.5816,0.00023159,3.4e-05,0.0,0 STARLINK-4150,1 53134U 22083C   22327.28487929  .00003400  00000-0  23159-3 0  9996,2 53134  53.2141 171.9183 0002813  37.5372 322.5816 15.08841836 20323,6917.875,95.437,541.686,537.794,0.0
53134.0,STARLINK-4150,PAYLOAD,2022-11-23 13:11:46,15.08843842,0.0002808,53.214,170.7289,38.5311,321.5881,0.00021306,3.104e-05,0.0,0 STARLINK-4150,1 53134U 22083C   22327.54983850  .00003104  00000-0  21306-3 0  9992,2 53134  53.2140 170.7289 0002808  38.5311 321.5881 15.08843842 19737,6917.869000000002,95.437,541.6759999999998,537.7909999999998,0.0
53134.0,STARLINK-4150,PAYLOAD,2022-11-23 19:33:19,15.08834678,0.0002758,53.2156,169.5385,40.2519,319.8677,4.2163e-05,3.82e-06,0.0,0 STARLINK-4150,1 53134U 22083C   22327.81480338  .00000382  00000-0  42163-4 0  9995,2 53134  53.2156 169.5385 0002758  40.2519 319.8677 15.08834678 19775,6917.897,95.438,541.67,537.854,0.0
53134.0,STARLINK-4150,PAYLOAD,2022-11-24 01:54:51,15.08831047,0.0002797,53.2154,168.3497,39.9469,320.1728,-2.1492e-05,-6.31e-06,0.0,0 STARLINK-4150,1 53134U 22083C   22328.07976628 -.00000631  00000-0 -21492-4 0  9997,2 53134  53.2154 168.3497 0002797  39.9469 320.1728 15.08831047 20441,6917.908,95.438,541.7080000000002,537.8380000000002,0.0
53134.0,STARLINK-4150,PAYLOAD,2022-11-24 06:41:01,15.08833935,0.0002829,53.2154,167.4577,39.5339,320.5859,-2.0165e-05,-6.09e-06,0.0,0 STARLINK-4150,1 53134U 22083C   22328.27848592 -.00000609  00000-0 -20165-4 0  9998,2 53134  53.2154 167.4577 0002829  39.5339 320.5859 15.08833935 19847,6917.899,95.438,541.721,537.807,0.0
53134.0,STARLINK-4150,PAYLOAD,2022-11-24 19:24:06,15.08837794,0.0002743,53.2172,165.0787,39.722,320.3973,2.5149e-05,1.12e-06,0.0,0 STARLINK-4150,1 53134U 22083C   22328.80840909  .00000112  00000-0  25149-4 0  9995,2 53134  53.2172 165.0787 0002743  39.7220 320.3973 15.08837794 19921,6917.887,95.438,541.65,537.855,0.0
